GLOBALSTAR M094         
1 39074U 13005C   24205.40465932 -.00000079  00000+0  13756-3 0  9999
2 39074  51.9960 103.1628 0000511  25.4390 334.6501 12.62286543530858
GLOBALSTAR M096         
1 39075U 13005D   24205.89303402 -.00000095  00000+0  51338-4 0  9993
2 39075  52.0059 149.9339 0000211 322.7526  37.3326 12.62267741529835
GLOBALSTAR M078         
1 39076U 13005E   24206.18345050 -.00000101  00000+0  16245-4 0  9998
2 39076  51.9849 234.0086 0001155 163.1707 196.9198 12.62273464528705
GLOBALSTAR M095         
1 39077U 13005F   24205.49692679 -.00000090  00000+0  74226-4 0  9994
2 39077  51.9776 233.4572 0000752 194.8954 165.1891 12.62262683528625
GLOBALSTAR M087         
1 52888U 22064A   24206.17127375 -.00000064  00000+0  12161-3 0  9996
2 52888  51.9762  79.4193 0010078  96.5325 263.6723 13.37579316102470
